{
    "links": {
        "self": "http://www.neowsapp.com/rest/v1/neo/3788125?api_key=iIulBulltgU6a56xZRHN4H3l9WmuAYTsLGpBGhQ2"
    },
    "id": "3788125",
    "neo_reference_id": "3788125",
    "name": "(2017 UJ8)",
    "designation": "2017 UJ8",
    "nasa_jpl_url": "http://ssd.jpl.nasa.gov/sbdb.cgi?sstr=3788125",
    "absolute_magnitude_h": 25.2,
    "estimated_diameter": {
        "kilometers": {
            "estimated_diameter_min": 0.0242412481,
            "estimated_diameter_max": 0.0542050786
        },
        "meters": {
            "estimated_diameter_min": 24.2412481101,
            "estimated_diameter_max": 54.2050786336
        },
        "miles": {
            "estimated_diameter_min": 0.0150628086,
            "estimated_diameter_max": 0.0336814639
        },
        "feet": {
            "estimated_diameter_min": 79.5316564495,
            "estimated_diameter_max": 177.8381901842
        }
    },
    "is_potentially_hazardous_asteroid": false,
    "close_approach_data": [
        {
            "close_approach_date": "2015-10-24",
            "close_approach_date_full": "2015-Oct-24 23:06",
            "epoch_date_close_approach": 1445727960000,
            "relative_velocity": {
                "kilometers_per_second": "13.9625821962",
                "kilometers_per_hour": "50265.2959064525",
                "miles_per_hour": "31232.9001147621"
            },
            "miss_distance": {
                "astronomical": "0.0368879053",
                "lunar": "14.3493951617",
                "kilometers": "5518352.061641711",
                "miles": "3428944.9688131718"
            },
            "orbiting_body": "Earth"
        },
        {
            "close_approach_date": "2017-10-22",
            "close_approach_date_full": "2017-Oct-22 06:40",
            "epoch_date_close_approach": 1508654400000,
            "relative_velocity": {
                "kilometers_per_second": "13.21291728",
                "kilometers_per_hour": "47566.5022078326",
                "miles_per_hour": "29555.974663528"
            },
            "miss_distance": {
                "astronomical": "0.0320839809",
                "lunar": "12.4806685701",
                "kilometers": "4799695.203760683",
                "miles": "2982392.3042481054"
            },
            "orbiting_body": "Earth"
        }
    ],
    "orbital_data": {
        "orbit_id": "3",
        "orbit_determination_date": "2017-11-06 06:17:56",
        "first_observation_date": "2017-10-27",
        "last_observation_date": "2017-10-31",
        "data_arc_in_days": 4,
        "observations_used": 27,
        "orbit_uncertainty": "8",
        "minimum_orbit_intersection": ".0306361",
        "jupiter_tisserand_invariant": "4.238",
        "epoch_osculation": "2458054.5",
        "eccentricity": ".4485004205407722",
        "semi_major_axis": "1.584623505209974",
        "inclination": "14.60385630900752",
        "ascending_node_longitude": "34.81170928448361",
        "orbital_period": "728.5973165114488",
        "perihelion_distance": ".8739191967245082",
        "perihelion_argument": "298.1793147805379",
        "aphelion_distance": "2.29532781369544",
        "perihelion_time": "2458005.878837479154",
        "mean_anomaly": "24.02372080000588",
        "mean_motion": ".4941000904638155",
        "equinox": "J2000",
        "orbit_class": {
            "orbit_class_type": "APO",
            "orbit_class_description": "Near-Earth asteroid orbits which cross the Earth’s orbit similar to that of 1862 Apollo",
            "orbit_class_range": "a (semi-major axis) > 1.0 AU; q (perihelion) < 1.017 AU"
        }
    },
    "is_sentry_object": false
}